TIGER-6                 
1 58272U 23174S   26068.73366728  .00113437  00000+0  98002-3 0  9995
2 58272  97.3904 161.9275 0003121 155.9023 204.2385 15.68857868130641
STARLINK-11137 [DTC]    
1 60050U 24112N   26068.93570316  .00002563  00000+0  26012-4 0  9997
2 60050  53.1586 264.7609 0001085  78.3297 281.7842 15.69705840101026
